0 ARIANE 44L+ DEB
1 23242U 92021M   13281.52157172 -.00000080  00000-0  68278-2 0  4292
2 23242 003.3288 151.2770 7021337 210.1473 040.0604 02.24583145158601
0 ARIANE 44L+ DEB
1 23242U 92021M   13287.26582550 -.00000144  00000-0  73947-2 0  4314
2 23242 003.3308 149.1850 7021385 214.2124 004.2412 02.24584010158735
0 ARIANE 44L+ DEB
1 23242U 92021M   13291.32366264 -.00000105  00000-0  42893-2 0  4322
2 23242 003.3316 147.7135 7021436 217.0772 044.9776 02.24585107158823
0 ARIANE 44L+ DEB
1 23242U 92021M   13293.96237535 -.00000167  00000-0 -12714-2 0  4331
2 23242 003.3315 146.7467 7021462 218.9504 018.3657 02.24586321158889
